STARLINK-31070          
1 58639U 23203X   26068.01410120 -.00000845  00000+0 -21215-4 0  9995
2 58639  42.9993  71.2821 0000906 192.3964 167.6865 15.27571827123458
ION SCV-017             
1 63230U 25052W   26068.71648816  .00006457  00000+0  24539-3 0  9998
2 63230  97.4016 324.7516 0023746  44.9875 315.3282 15.26881798 54851
